{
"type": "FeatureCollection",
"name": "Vedas_Oil_Refineries",
"crs": { "type": "name", "properties": { "name": "urn:ogc:def:crs:OGC::CRS84" } },
"features": [
{ "type": "Feature", "properties": { "id": "refineries_public.22", "ppaccompan": "MANGALORE REF. AND PETROCHEMICALS LTD.", "location": "Kuthethoor", "ppacdistri": "SOUTH KANNADA", "distillati": 15000.0, "distilla_1": 7104.0, "xmin": 74.856, "ymin": 12.9141, "xmax": 74.856, "ymax": 12.9141 }, "geometry": { "type": "Point", "coordinates": [ 74.856, 12.9141 ] } },
{ "type": "Feature", "properties": { "id": "refineries_public.2", "ppaccompan": "Bharat Petroleum Corporation Ltd", "location": "KOCHI", "ppacdistri": "ERNAKULAM", "distillati": 9500.0, "distilla_1": 4168.0, "xmin": 76.3786, "ymin": 9.9711, "xmax": 76.3786, "ymax": 9.9711 }, "geometry": { "type": "Point", "coordinates": [ 76.3786, 9.9711 ] } },
{ "type": "Feature", "properties": { "id": "refineries_public.4", "ppaccompan": "Chennai Petroleum Corporation Ltd.", "location": "Muttam", "ppacdistri": "NAGAPATTINAM", "distillati": 1000.0, "distilla_1": 0.0, "xmin": 79.844, "ymin": 10.8233, "xmax": 79.844, "ymax": 10.8233 }, "geometry": { "type": "Point", "coordinates": [ 79.844, 10.8233 ] } },
{ "type": "Feature", "properties": { "id": "refineries_public.3", "ppaccompan": "Chennai Petroleum Corporation Ltd.", "location": "Manali, Chennai", "ppacdistri": "TIRUVALLUR", "distillati": 10500.0, "distilla_1": 5224.0, "xmin": 80.2696, "ymin": 13.1619, "xmax": 80.2696, "ymax": 13.1619 }, "geometry": { "type": "Point", "coordinates": [ 80.2696, 13.1619 ] } },
{ "type": "Feature", "properties": { "id": "refineries_public.21", "ppaccompan": "OIL AND NATURAL GAS CORPORATION LTD.", "location": "Tatipaka", "ppacdistri": "EAST GODAVARI", "distillati": 100.0, "distilla_1": 0.0, "xmin": 81.8959, "ymin": 16.5004, "xmax": 81.8959, "ymax": 16.5004 }, "geometry": { "type": "Point", "coordinates": [ 81.8959, 16.5004 ] } },
{ "type": "Feature", "properties": { "id": "refineries_public.1", "ppaccompan": "Bharat Petroleum Corporation Ltd", "location": "MUMBAI", "ppacdistri": "MUMBAI CITY", "distillati": 12000.0, "distilla_1": 0.0, "xmin": 72.8923, "ymin": 19.0128, "xmax": 72.8923, "ymax": 19.0128 }, "geometry": { "type": "Point", "coordinates": [ 72.8923, 19.0128 ] } },
{ "type": "Feature", "properties": { "id": "refineries_public.5", "ppaccompan": "Hindustan Petroleum Corporation Ltd", "location": "Mahul", "ppacdistri": "MUMBAI CITY", "distillati": 7500.0, "distilla_1": 0.0, "xmin": 72.9032, "ymin": 19.0179, "xmax": 72.9032, "ymax": 19.0179 }, "geometry": { "type": "Point", "coordinates": [ 72.9032, 19.0179 ] } },
{ "type": "Feature", "properties": { "id": "refineries_public.19", "ppaccompan": "Essar Oil Limited", "location": "Vadinar", "ppacdistri": "DEVBHUMI DWARKA", "distillati": 0.0, "distilla_1": 0.0, "xmin": 69.7479, "ymin": 22.3465, "xmax": 69.7479, "ymax": 22.3465 }, "geometry": { "type": "Point", "coordinates": [ 69.7479, 22.3465 ] } },
{ "type": "Feature", "properties": { "id": "refineries_public.16", "ppaccompan": "Reliance Industries Limited", "location": "Motikhavdi", "ppacdistri": "JAMNAGAR", "distillati": 0.0, "distilla_1": 0.0, "xmin": 69.8706, "ymin": 22.3534, "xmax": 69.8706, "ymax": 22.3534 }, "geometry": { "type": "Point", "coordinates": [ 69.8706, 22.3534 ] } },
{ "type": "Feature", "properties": { "id": "refineries_public.17", "ppaccompan": "Reliance Industries Limited", "location": "Motikhavdi", "ppacdistri": "JAMNAGAR", "distillati": 111111.0, "distilla_1": 0.0, "xmin": 69.8706, "ymin": 22.3534, "xmax": 69.8706, "ymax": 22.3534 }, "geometry": { "type": "Point", "coordinates": [ 69.8706, 22.3534 ] } },
{ "type": "Feature", "properties": { "id": "refineries_public.9", "ppaccompan": "Indian Oil Corporation Ltd", "location": "Jawahar Nagar", "ppacdistri": "VADODARA", "distillati": 13700.0, "distilla_1": 6700.0, "xmin": 73.1223, "ymin": 22.3745, "xmax": 73.1223, "ymax": 22.3745 }, "geometry": { "type": "Point", "coordinates": [ 73.1223, 22.3745 ] } },
{ "type": "Feature", "properties": { "id": "refineries_public.23", "ppaccompan": "HPCL-MITTAL ENERGY LIMITED", "location": "Bhatinda", "ppacdistri": "BHATINDA", "distillati": 9000.0, "distilla_1": 0.0, "xmin": 74.9557, "ymin": 29.9199, "xmax": 74.9557, "ymax": 29.9199 }, "geometry": { "type": "Point", "coordinates": [ 74.9557, 29.9199 ] } },
{ "type": "Feature", "properties": { "id": "refineries_public.13", "ppaccompan": "Indian Oil Corporation Ltd", "location": "Mathura", "ppacdistri": "MATHURA", "distillati": 8000.0, "distilla_1": 3000.0, "xmin": 77.6737, "ymin": 27.4924, "xmax": 77.6737, "ymax": 27.4924 }, "geometry": { "type": "Point", "coordinates": [ 77.6737, 27.4924 ] } },
{ "type": "Feature", "properties": { "id": "refineries_public.14", "ppaccompan": "Indian Oil Corporation Ltd", "location": "Panipat", "ppacdistri": "PANIPAT", "distillati": 15000.0, "distilla_1": 8000.0, "xmin": 76.8746, "ymin": 29.4751, "xmax": 76.8746, "ymax": 29.4751 }, "geometry": { "type": "Point", "coordinates": [ 76.8746, 29.4751 ] } },
{ "type": "Feature", "properties": { "id": "refineries_public.18", "ppaccompan": "Bharat Oman Refineries Limited", "location": "Bina", "ppacdistri": "SAGAR", "distillati": 6000.0, "distilla_1": 3162.0, "xmin": 78.159, "ymin": 24.2404, "xmax": 78.159, "ymax": 24.2404 }, "geometry": { "type": "Point", "coordinates": [ 78.159, 24.2404 ] } },
{ "type": "Feature", "properties": { "id": "refineries_public.15", "ppaccompan": "Indian Oil Corporation Ltd", "location": "Paradip", "ppacdistri": "JAGATSINGHPUR", "distillati": 15000.0, "distilla_1": 8700.0, "xmin": 86.6, "ymin": 20.2556, "xmax": 86.6, "ymax": 20.2556 }, "geometry": { "type": "Point", "coordinates": [ 86.6, 20.2556 ] } },
{ "type": "Feature", "properties": { "id": "refineries_public.11", "ppaccompan": "Indian Oil Corporation Ltd", "location": "Haldia", "ppacdistri": "PURBA MEDINIPUR", "distillati": 7500.0, "distilla_1": 3760.0, "xmin": 88.1079, "ymin": 22.0495, "xmax": 88.1079, "ymax": 22.0495 }, "geometry": { "type": "Point", "coordinates": [ 88.1079, 22.0495 ] } },
{ "type": "Feature", "properties": { "id": "refineries_public.10", "ppaccompan": "Indian Oil Corporation Ltd", "location": "Barauni", "ppacdistri": "BEGUSARAI", "distillati": 6000.0, "distilla_1": 6000.0, "xmin": 86.0625, "ymin": 25.427, "xmax": 86.0625, "ymax": 25.427 }, "geometry": { "type": "Point", "coordinates": [ 86.0625, 25.427 ] } },
{ "type": "Feature", "properties": { "id": "refineries_public.8", "ppaccompan": "Indian Oil Corporation Ltd", "location": "Guwahati", "ppacdistri": "KAMRUP", "distillati": 1000.0, "distilla_1": 0.0, "xmin": 91.8006, "ymin": 26.1903, "xmax": 91.8006, "ymax": 26.1903 }, "geometry": { "type": "Point", "coordinates": [ 91.8006, 26.1903 ] } },
{ "type": "Feature", "properties": { "id": "refineries_public.12", "ppaccompan": "Indian Oil Corporation Ltd", "location": "Bongaigaon", "ppacdistri": "CHIRANG", "distillati": 2350.0, "distilla_1": 0.0, "xmin": 90.5316, "ymin": 26.5169, "xmax": 90.5316, "ymax": 26.5169 }, "geometry": { "type": "Point", "coordinates": [ 90.5316, 26.5169 ] } },
{ "type": "Feature", "properties": { "id": "refineries_public.7", "ppaccompan": "Indian Oil Corporation Ltd", "location": "Digboi", "ppacdistri": "TINSUKIA", "distillati": 650.0, "distilla_1": 242.0, "xmin": 95.6173, "ymin": 27.3831, "xmax": 95.6173, "ymax": 27.3831 }, "geometry": { "type": "Point", "coordinates": [ 95.6173, 27.3831 ] } },
{ "type": "Feature", "properties": { "id": "refineries_public.20", "ppaccompan": "Numaligarh Refineries Ltd", "location": "Numaligarh", "ppacdistri": "GOLAGHAT", "distillati": 3000.0, "distilla_1": 1420.0, "xmin": 93.7843, "ymin": 26.5788, "xmax": 93.7843, "ymax": 26.5788 }, "geometry": { "type": "Point", "coordinates": [ 93.7843, 26.5788 ] } },
{ "type": "Feature", "properties": { "id": "refineries_public.6", "ppaccompan": "Hindustan Petroleum Corporation Ltd", "location": "Malkapuram", "ppacdistri": "VISAKHAPATNAM", "distillati": 8300.0, "distilla_1": 0.0, "xmin": 83.2446, "ymin": 17.7048, "xmax": 83.2446, "ymax": 17.7048 }, "geometry": { "type": "Point", "coordinates": [ 83.2446, 17.7048 ] } }
]
}
