{
"type": "FeatureCollection",
"name": "Vedas_Wind_Farms",
"crs": { "type": "name", "properties": { "name": "urn:ogc:def:crs:OGC::CRS84" } },
"features": [
{ "type": "Feature", "properties": { "id": "wind_farms.13", "objectid": 13, "plant_name": "Acciona Tuppadahalli", "plant_code": 13, "utility_na": "Tuppadahalli Energy India Pvt Ltd", "utility_co": 7, "district": "Chitradurga District", "state": "Karnataka", "sector": null, "inst_cap": 56.1, "date_comm": null, "primary_fu": "Wind", "technology": null, "datasource": "Wikipedia", "data_perio": 2017, "taluka": "Chitradurga District", "village": "Tuppadahalli", "latitude": 13.936769, "longitude": 76.098433, "xmin": 76.0984, "ymin": 13.9368, "xmax": 76.0984, "ymax": 13.9368 }, "geometry": { "type": "Point", "coordinates": [ 76.0984, 13.9368 ] } },
{ "type": "Feature", "properties": { "id": "wind_farms.6", "objectid": 6, "plant_name": "Vaspet", "plant_code": 6, "utility_na": "ReNew Power", "utility_co": 5, "district": "Vaspet", "state": "Maharashtra", "sector": null, "inst_cap": 144.0, "date_comm": null, "primary_fu": "Wind", "technology": null, "datasource": "Wikipedia", "data_perio": 2017, "taluka": "Vaspet", "village": "Kolgiri", "latitude": 17.10053, "longitude": 75.327681, "xmin": 75.3277, "ymin": 17.1005, "xmax": 75.3277, "ymax": 17.1005 }, "geometry": { "type": "Point", "coordinates": [ 75.3277, 17.1005 ] } },
{ "type": "Feature", "properties": { "id": "wind_farms.4", "objectid": 4, "plant_name": "Dhalgaon windfarm[24]", "plant_code": 4, "utility_na": "Gadre Marine Exports", "utility_co": 4, "district": "Sangli", "state": "Maharashtra", "sector": null, "inst_cap": 278.0, "date_comm": null, "primary_fu": "Wind", "technology": null, "datasource": "Wikipedia", "data_perio": 2017, "taluka": "Sangli", "village": "Dhalgaon", "latitude": 17.117147, "longitude": 74.981793, "xmin": 74.9818, "ymin": 17.1171, "xmax": 74.9818, "ymax": 17.1171 }, "geometry": { "type": "Point", "coordinates": [ 74.9818, 17.1171 ] } },
{ "type": "Feature", "properties": { "id": "wind_farms.11", "objectid": 11, "plant_name": "Jath", "plant_code": 11, "utility_na": "ReNew Power", "utility_co": 5, "district": "Jath", "state": "Maharashtra", "sector": null, "inst_cap": 84.0, "date_comm": null, "primary_fu": "Wind", "technology": null, "datasource": "Wikipedia", "data_perio": 2017, "taluka": "Jath", "village": "Jath", "latitude": 17.060081, "longitude": 75.184395, "xmin": 75.1844, "ymin": 17.0601, "xmax": 75.1844, "ymax": 17.0601 }, "geometry": { "type": "Point", "coordinates": [ 75.1844, 17.0601 ] } },
{ "type": "Feature", "properties": { "id": "wind_farms.18", "objectid": 18, "plant_name": "Jasdan", "plant_code": 18, "utility_na": "ReNew Power", "utility_co": 5, "district": "Jasdan", "state": "Gujarat", "sector": null, "inst_cap": 25.2, "date_comm": null, "primary_fu": "Wind", "technology": null, "datasource": "Wikipedia", "data_perio": 2017, "taluka": "Jasdan", "village": "Jasdan", "latitude": 22.033472, "longitude": 71.186628, "xmin": 71.1866, "ymin": 22.0335, "xmax": 71.1866, "ymax": 22.0335 }, "geometry": { "type": "Point", "coordinates": [ 71.1866, 22.0335 ] } },
{ "type": "Feature", "properties": { "id": "wind_farms.2", "objectid": 2, "plant_name": "Jaisalmer Wind Park[22]", "plant_code": 2, "utility_na": "Suzlon Energy", "utility_co": 2, "district": "Jaisalmer", "state": "Rajasthan", "sector": null, "inst_cap": 1064.0, "date_comm": null, "primary_fu": "Wind", "technology": null, "datasource": "Wikipedia", "data_perio": 2017, "taluka": "Jaisalmer", "village": "Jaisalmer", "latitude": 26.92, "longitude": 70.015, "xmin": 70.015, "ymin": 26.92, "xmax": 70.015, "ymax": 26.92 }, "geometry": { "type": "Point", "coordinates": [ 70.015, 26.92 ] } },
{ "type": "Feature", "properties": { "id": "wind_farms.14", "objectid": 14, "plant_name": "Dangiri Wind Farm", "plant_code": 14, "utility_na": "Oil India Ltd.", "utility_co": 8, "district": "Jaiselmer", "state": "Rajasthan", "sector": null, "inst_cap": 54.0, "date_comm": null, "primary_fu": "Wind", "technology": null, "datasource": "Wikipedia", "data_perio": 2017, "taluka": "Jaiselmer", "village": "Dangiri", "latitude": 26.543723, "longitude": 71.386188, "xmin": 71.3862, "ymin": 26.5437, "xmax": 71.3862, "ymax": 26.5437 }, "geometry": { "type": "Point", "coordinates": [ 71.3862, 26.5437 ] } },
{ "type": "Feature", "properties": { "id": "wind_farms.8", "objectid": 8, "plant_name": "Mamatkheda Wind Park", "plant_code": 8, "utility_na": "Orange Renewable", "utility_co": 6, "district": "Mamatkheda", "state": "Madhya Pradesh", "sector": null, "inst_cap": 100.5, "date_comm": null, "primary_fu": "Wind", "technology": null, "datasource": "Wikipedia", "data_perio": 2017, "taluka": "Mamatkheda", "village": "Mamatkheda", "latitude": 23.987044, "longitude": 75.465745, "xmin": 75.4657, "ymin": 23.987, "xmax": 75.4657, "ymax": 23.987 }, "geometry": { "type": "Point", "coordinates": [ 75.4657, 23.987 ] } },
{ "type": "Feature", "properties": { "id": "wind_farms.15", "objectid": 15, "plant_name": "Bercha Wind Park", "plant_code": 15, "utility_na": "Orange Renewable", "utility_co": 6, "district": "Ratlam", "state": "Madhya Pradesh", "sector": null, "inst_cap": 50.0, "date_comm": null, "primary_fu": "Wind", "technology": null, "datasource": "Wikipedia", "data_perio": 2017, "taluka": "Ratlam", "village": "Bercha", "latitude": 23.539814, "longitude": 75.371575, "xmin": 75.3716, "ymin": 23.5398, "xmax": 75.3716, "ymax": 23.5398 }, "geometry": { "type": "Point", "coordinates": [ 75.3716, 23.5398 ] } },
{ "type": "Feature", "properties": { "id": "wind_farms.3", "objectid": 3, "plant_name": "Brahmanvel windfarm[23]", "plant_code": 3, "utility_na": "Parakh Agro Industries", "utility_co": 3, "district": "Dhule", "state": "Maharashtra", "sector": null, "inst_cap": 528.0, "date_comm": null, "primary_fu": "Wind", "technology": null, "datasource": "Wikipedia", "data_perio": 2017, "taluka": "Dhule", "village": "Brahmanvel", "latitude": 21.15, "longitude": 74.216667, "xmin": 74.2167, "ymin": 21.15, "xmax": 74.2167, "ymax": 21.15 }, "geometry": { "type": "Point", "coordinates": [ 74.2167, 21.15 ] } },
{ "type": "Feature", "properties": { "id": "wind_farms.5", "objectid": 5, "plant_name": "Vankusawade Wind Park", "plant_code": 5, "utility_na": "Suzlon Energy Ltd.", "utility_co": 2, "district": "Satara District.", "state": "Maharashtra", "sector": null, "inst_cap": 259.0, "date_comm": null, "primary_fu": "Wind", "technology": null, "datasource": "Wikipedia", "data_perio": 2017, "taluka": "Satara District.", "village": "Vankusawade", "latitude": 17.510095, "longitude": 73.866181, "xmin": 73.8662, "ymin": 17.5101, "xmax": 73.8662, "ymax": 17.5101 }, "geometry": { "type": "Point", "coordinates": [ 73.8662, 17.5101 ] } },
{ "type": "Feature", "properties": { "id": "wind_farms.12", "objectid": 12, "plant_name": "Welturi", "plant_code": 12, "utility_na": "ReNew Power", "utility_co": 5, "district": "Welturi", "state": "Maharashtra", "sector": null, "inst_cap": 75.0, "date_comm": null, "primary_fu": "Wind", "technology": null, "datasource": "Wikipedia", "data_perio": 2017, "taluka": "Welturi", "village": "Welturi", "latitude": 19.063454, "longitude": 75.055158, "xmin": 75.0552, "ymin": 19.0635, "xmax": 75.0552, "ymax": 19.0635 }, "geometry": { "type": "Point", "coordinates": [ 75.0552, 19.0635 ] } },
{ "type": "Feature", "properties": { "id": "wind_farms.10", "objectid": 10, "plant_name": "Damanjodi Wind Power Plant", "plant_code": 10, "utility_na": "Suzlon Energy Ltd.", "utility_co": 2, "district": "Damanjodi", "state": "Odisha", "sector": null, "inst_cap": 99.0, "date_comm": null, "primary_fu": "Wind", "technology": null, "datasource": "Wikipedia", "data_perio": 2017, "taluka": "Damanjodi", "village": "Damanjodi", "latitude": 18.773388, "longitude": 82.892704, "xmin": 82.8927, "ymin": 18.7734, "xmax": 82.8927, "ymax": 18.7734 }, "geometry": { "type": "Point", "coordinates": [ 82.8927, 18.7734 ] } },
{ "type": "Feature", "properties": { "id": "wind_farms.9", "objectid": 9, "plant_name": "Anantapur Wind Park", "plant_code": 9, "utility_na": "Orange Renewable", "utility_co": 6, "district": "Nimbagallu", "state": "Andhra Pradesh", "sector": null, "inst_cap": 100.0, "date_comm": null, "primary_fu": "Wind", "technology": null, "datasource": "Wikipedia", "data_perio": 2017, "taluka": "Nimbagallu", "village": "Anantapur", "latitude": 14.665041, "longitude": 77.559187, "xmin": 77.5592, "ymin": 14.665, "xmax": 77.5592, "ymax": 14.665 }, "geometry": { "type": "Point", "coordinates": [ 77.5592, 14.665 ] } },
{ "type": "Feature", "properties": { "id": "wind_farms.7", "objectid": 7, "plant_name": "Beluguppa Wind Park", "plant_code": 7, "utility_na": "Orange Renewable", "utility_co": 6, "district": "Beluguppa", "state": "Andhra Pradesh", "sector": null, "inst_cap": 100.8, "date_comm": null, "primary_fu": "Wind", "technology": null, "datasource": "Wikipedia", "data_perio": 2017, "taluka": "Beluguppa", "village": "Beluguppa", "latitude": 14.715285, "longitude": 77.131223, "xmin": 77.1312, "ymin": 14.7153, "xmax": 77.1312, "ymax": 14.7153 }, "geometry": { "type": "Point", "coordinates": [ 77.1312, 14.7153 ] } },
{ "type": "Feature", "properties": { "id": "wind_farms.20", "objectid": 20, "plant_name": "Gudimangalam", "plant_code": 20, "utility_na": "Gudimangalam Wind Farm", "utility_co": 11, "district": "Gudimangalam", "state": "Tamil Nadu", "sector": null, "inst_cap": 21.0, "date_comm": null, "primary_fu": "Wind", "technology": null, "datasource": "Wikipedia", "data_perio": 2017, "taluka": "Gudimangalam", "village": "Gudimangalam", "latitude": 10.691678, "longitude": 77.276287, "xmin": 77.2763, "ymin": 10.6917, "xmax": 77.2763, "ymax": 10.6917 }, "geometry": { "type": "Point", "coordinates": [ 77.2763, 10.6917 ] } },
{ "type": "Feature", "properties": { "id": "wind_farms.19", "objectid": 19, "plant_name": "Ramakkalmedu", "plant_code": 19, "utility_na": "Subhash Ltd.", "utility_co": 10, "district": "Ramakkalmedu", "state": "Kerala", "sector": null, "inst_cap": 25.0, "date_comm": null, "primary_fu": "Wind", "technology": null, "datasource": "Wikipedia", "data_perio": 2017, "taluka": "Ramakkalmedu", "village": "Ramakkalmedu", "latitude": 9.80176, "longitude": 77.226294, "xmin": 77.2263, "ymin": 9.8018, "xmax": 77.2263, "ymax": 9.8018 }, "geometry": { "type": "Point", "coordinates": [ 77.2263, 9.8018 ] } },
{ "type": "Feature", "properties": { "id": "wind_farms.16", "objectid": 16, "plant_name": "Cape Comorin", "plant_code": 16, "utility_na": "Aban Loyd Chiles Offshore Ltd.", "utility_co": 9, "district": "Kanyakumari", "state": "Tamil Nadu", "sector": null, "inst_cap": 33.0, "date_comm": null, "primary_fu": "Wind", "technology": null, "datasource": "Wikipedia", "data_perio": 2017, "taluka": "Kanyakumari", "village": "Cape Comorin", "latitude": 8.0868, "longitude": 77.541493, "xmin": 77.5415, "ymin": 8.0868, "xmax": 77.5415, "ymax": 8.0868 }, "geometry": { "type": "Point", "coordinates": [ 77.5415, 8.0868 ] } },
{ "type": "Feature", "properties": { "id": "wind_farms.1", "objectid": 1, "plant_name": "Muppandal windfarm[21]", "plant_code": 1, "utility_na": "Muppandal Wind", "utility_co": 1, "district": "Kanyakumari", "state": "Tamil Nadu", "sector": null, "inst_cap": 1500.0, "date_comm": null, "primary_fu": "Wind", "technology": null, "datasource": "Wikipedia", "data_perio": 2017, "taluka": "Kanyakumari", "village": "Muppandal", "latitude": 8.25, "longitude": 77.592778, "xmin": 77.5928, "ymin": 8.25, "xmax": 77.5928, "ymax": 8.25 }, "geometry": { "type": "Point", "coordinates": [ 77.5928, 8.25 ] } },
{ "type": "Feature", "properties": { "id": "wind_farms.17", "objectid": 17, "plant_name": "Kayathar Subhash", "plant_code": 17, "utility_na": "Subhash Ltd.", "utility_co": 10, "district": "Kayathar", "state": "Tamil Nadu", "sector": null, "inst_cap": 30.0, "date_comm": null, "primary_fu": "Wind", "technology": null, "datasource": "Wikipedia", "data_perio": 2017, "taluka": "Kayathar", "village": "Kayathar", "latitude": 8.952506, "longitude": 77.763199, "xmin": 77.7632, "ymin": 8.9525, "xmax": 77.7632, "ymax": 8.9525 }, "geometry": { "type": "Point", "coordinates": [ 77.7632, 8.9525 ] } }
]
}
