{
"type": "FeatureCollection",
"name": "Vedas_Solar_Power_Plants",
"crs": { "type": "name", "properties": { "name": "urn:ogc:def:crs:OGC::CRS84" } },
"features": [
{ "type": "Feature", "properties": { "id": "solar_power_plants.165", "objectid": 165, "state_name": "Tamilnadu", "location": "Kamuthi, Ramnad", "inst_cap_m": 216, "num_plants": 1, "xmin": 78.3917, "ymin": 9.3381, "xmax": 78.3917, "ymax": 9.3381 }, "geometry": { "type": "Point", "coordinates": [ 78.3917, 9.3381 ] } },
{ "type": "Feature", "properties": { "id": "solar_power_plants.166", "objectid": 166, "state_name": "Tamilnadu", "location": "Nagapatinam", "inst_cap_m": 4, "num_plants": 1, "xmin": 79.8147, "ymin": 10.8244, "xmax": 79.8147, "ymax": 10.8244 }, "geometry": { "type": "Point", "coordinates": [ 79.8147, 10.8244 ] } },
{ "type": "Feature", "properties": { "id": "solar_power_plants.164", "objectid": 164, "state_name": "Tamilnadu", "location": "Cuddalore District", "inst_cap_m": 10, "num_plants": 1, "xmin": 79.5204, "ymin": 11.6114, "xmax": 79.5204, "ymax": 11.6114 }, "geometry": { "type": "Point", "coordinates": [ 79.5204, 11.6114 ] } },
{ "type": "Feature", "properties": { "id": "solar_power_plants.4", "objectid": 4, "state_name": "Andhra Pradesh", "location": "Kadiri (V&M), Ananthapuramu District", "inst_cap_m": 5, "num_plants": 1, "xmin": 78.1431, "ymin": 14.1652, "xmax": 78.1431, "ymax": 14.1652 }, "geometry": { "type": "Point", "coordinates": [ 78.1431, 14.1652 ] } },
{ "type": "Feature", "properties": { "id": "solar_power_plants.6", "objectid": 6, "state_name": "Andhra Pradesh", "location": "Kotagullu (V), Kadiri (M), Ananthapur District", "inst_cap_m": 1, "num_plants": 1, "xmin": 78.1431, "ymin": 14.1652, "xmax": 78.1431, "ymax": 14.1652 }, "geometry": { "type": "Point", "coordinates": [ 78.1431, 14.1652 ] } },
{ "type": "Feature", "properties": { "id": "solar_power_plants.7", "objectid": 7, "state_name": "Andhra Pradesh", "location": "Kotagullu(V), Kadiri(M), Ananthapuramu District", "inst_cap_m": 1, "num_plants": 1, "xmin": 78.1431, "ymin": 14.1652, "xmax": 78.1431, "ymax": 14.1652 }, "geometry": { "type": "Point", "coordinates": [ 78.1431, 14.1652 ] } },
{ "type": "Feature", "properties": { "id": "solar_power_plants.12", "objectid": 12, "state_name": "Andhra Pradesh", "location": "Veligallu Village, Ananthapuramu (Anantapur) District, Andhra Pradesh", "inst_cap_m": 250, "num_plants": 1, "xmin": 78.437, "ymin": 14.0272, "xmax": 78.437, "ymax": 14.0272 }, "geometry": { "type": "Point", "coordinates": [ 78.437, 14.0272 ] } },
{ "type": "Feature", "properties": { "id": "solar_power_plants.9", "objectid": 9, "state_name": "Andhra Pradesh", "location": "Pulivendula(V&M), Kadapa District", "inst_cap_m": 5, "num_plants": 1, "xmin": 78.238, "ymin": 14.4634, "xmax": 78.238, "ymax": 14.4634 }, "geometry": { "type": "Point", "coordinates": [ 78.238, 14.4634 ] } },
{ "type": "Feature", "properties": { "id": "solar_power_plants.8", "objectid": 8, "state_name": "Andhra Pradesh", "location": "Nagalapuram (V), Peddavadugu (M), Ananthapuramu District", "inst_cap_m": 50, "num_plants": 1, "xmin": 77.687, "ymin": 14.9455, "xmax": 77.687, "ymax": 14.9455 }, "geometry": { "type": "Point", "coordinates": [ 77.687, 14.9455 ] } },
{ "type": "Feature", "properties": { "id": "solar_power_plants.3", "objectid": 3, "state_name": "Andhra Pradesh", "location": "Borampally(V), Kalyandurg(M), Ananthapuramu District", "inst_cap_m": 20, "num_plants": 1, "xmin": 77.1876, "ymin": 14.5768, "xmax": 77.1876, "ymax": 14.5768 }, "geometry": { "type": "Point", "coordinates": [ 77.1876, 14.5768 ] } },
{ "type": "Feature", "properties": { "id": "solar_power_plants.11", "objectid": 11, "state_name": "Andhra Pradesh", "location": "T.Veeravaram(V), Rayadurg(M), Ananthapuramu District", "inst_cap_m": 5, "num_plants": 1, "xmin": 76.9517, "ymin": 14.7629, "xmax": 76.9517, "ymax": 14.7629 }, "geometry": { "type": "Point", "coordinates": [ 76.9517, 14.7629 ] } },
{ "type": "Feature", "properties": { "id": "solar_power_plants.1", "objectid": 1, "state_name": "Andhra Pradesh", "location": "Beechiganipalle and Seagipalle Villages, Parigi Mandal, Ananthapuramu dist.", "inst_cap_m": 40, "num_plants": 1, "xmin": 77.4887, "ymin": 13.9364, "xmax": 77.4887, "ymax": 13.9364 }, "geometry": { "type": "Point", "coordinates": [ 77.4887, 13.9364 ] } },
{ "type": "Feature", "properties": { "id": "solar_power_plants.2", "objectid": 2, "state_name": "Andhra Pradesh", "location": "Beechiganipalli(V&M), Ananthapuramu District", "inst_cap_m": 10, "num_plants": 5, "xmin": 77.4887, "ymin": 13.9364, "xmax": 77.4887, "ymax": 13.9364 }, "geometry": { "type": "Point", "coordinates": [ 77.4887, 13.9364 ] } },
{ "type": "Feature", "properties": { "id": "solar_power_plants.95", "objectid": 95, "state_name": "Maharashtra", "location": "Mumbai. Mouze:  Palaswadi, Tal. Maan, Dist. Satara", "inst_cap_m": 3, "num_plants": 1, "xmin": 74.8563, "ymin": 17.5735, "xmax": 74.8563, "ymax": 17.5735 }, "geometry": { "type": "Point", "coordinates": [ 74.8563, 17.5735 ] } },
{ "type": "Feature", "properties": { "id": "solar_power_plants.73", "objectid": 73, "state_name": "Maharashtra", "location": "At Sonalwadi, Tal. Sangola, Dist.  Solapur.", "inst_cap_m": 2, "num_plants": 1, "xmin": 75.0765, "ymin": 17.4741, "xmax": 75.0765, "ymax": 17.4741 }, "geometry": { "type": "Point", "coordinates": [ 75.0765, 17.4741 ] } },
{ "type": "Feature", "properties": { "id": "solar_power_plants.94", "objectid": 94, "state_name": "Maharashtra", "location": "Mangalwedha Industrial Area (MIDC), Dist. Solapur", "inst_cap_m": 2, "num_plants": 2, "xmin": 75.4326, "ymin": 17.5383, "xmax": 75.4326, "ymax": 17.5383 }, "geometry": { "type": "Point", "coordinates": [ 75.4326, 17.5383 ] } },
{ "type": "Feature", "properties": { "id": "solar_power_plants.85", "objectid": 85, "state_name": "Maharashtra", "location": "At Village Pokhrapur, Tal. Mohol Dist. Solapur", "inst_cap_m": 25, "num_plants": 1, "xmin": 75.5833, "ymin": 17.7934, "xmax": 75.5833, "ymax": 17.7934 }, "geometry": { "type": "Point", "coordinates": [ 75.5833, 17.7934 ] } },
{ "type": "Feature", "properties": { "id": "solar_power_plants.63", "objectid": 63, "state_name": "Maharashtra", "location": "At Borkhedi, Mandrup, \nTal. South Solapur, Dist.Solapur", "inst_cap_m": 3, "num_plants": 3, "xmin": 75.781, "ymin": 17.4999, "xmax": 75.781, "ymax": 17.4999 }, "geometry": { "type": "Point", "coordinates": [ 75.781, 17.4999 ] } },
{ "type": "Feature", "properties": { "id": "solar_power_plants.64", "objectid": 64, "state_name": "Maharashtra", "location": "At Borkhedi, Mandrup, Tal. South Solapur, Dist. Solapur", "inst_cap_m": 10, "num_plants": 6, "xmin": 75.781, "ymin": 17.4999, "xmax": 75.781, "ymax": 17.4999 }, "geometry": { "type": "Point", "coordinates": [ 75.781, 17.4999 ] } },
{ "type": "Feature", "properties": { "id": "solar_power_plants.83", "objectid": 83, "state_name": "Maharashtra", "location": "at Village Mandrup, Tal. South Solapur, Dist. Solapur", "inst_cap_m": 2, "num_plants": 1, "xmin": 75.781, "ymin": 17.4999, "xmax": 75.781, "ymax": 17.4999 }, "geometry": { "type": "Point", "coordinates": [ 75.781, 17.4999 ] } },
{ "type": "Feature", "properties": { "id": "solar_power_plants.65", "objectid": 65, "state_name": "Maharashtra", "location": "At Borkhedi, Mandrup, Tal. South Solapur, Dist.Solapur", "inst_cap_m": 32, "num_plants": 20, "xmin": 75.781, "ymin": 17.4999, "xmax": 75.781, "ymax": 17.4999 }, "geometry": { "type": "Point", "coordinates": [ 75.781, 17.4999 ] } },
{ "type": "Feature", "properties": { "id": "solar_power_plants.72", "objectid": 72, "state_name": "Maharashtra", "location": "At Shirsoli, Tal. & Dist. Jalgaon", "inst_cap_m": 8, "num_plants": 1, "xmin": 75.781, "ymin": 17.4999, "xmax": 75.781, "ymax": 17.4999 }, "geometry": { "type": "Point", "coordinates": [ 75.781, 17.4999 ] } },
{ "type": "Feature", "properties": { "id": "solar_power_plants.82", "objectid": 82, "state_name": "Maharashtra", "location": "at Village Karajagi, Tehsil. Akkalkot, Dist. Solapur", "inst_cap_m": 5, "num_plants": 1, "xmin": 76.0602, "ymin": 17.4561, "xmax": 76.0602, "ymax": 17.4561 }, "geometry": { "type": "Point", "coordinates": [ 76.0602, 17.4561 ] } },
{ "type": "Feature", "properties": { "id": "solar_power_plants.78", "objectid": 78, "state_name": "Maharashtra", "location": "at vilalge karajgi, Tal. Akkalkot, Dist. Solapur", "inst_cap_m": 3, "num_plants": 2, "xmin": 76.0602, "ymin": 17.4561, "xmax": 76.0602, "ymax": 17.4561 }, "geometry": { "type": "Point", "coordinates": [ 76.0602, 17.4561 ] } },
{ "type": "Feature", "properties": { "id": "solar_power_plants.5", "objectid": 5, "state_name": "Andhra Pradesh", "location": "Kadivella Village, Yemmiganur Mandal, Kurnool district", "inst_cap_m": 30, "num_plants": 2, "xmin": 77.4811, "ymin": 15.6701, "xmax": 77.4811, "ymax": 15.6701 }, "geometry": { "type": "Point", "coordinates": [ 77.4811, 15.6701 ] } },
{ "type": "Feature", "properties": { "id": "solar_power_plants.10", "objectid": 10, "state_name": "Andhra Pradesh", "location": "Sakunala Village, Panyam Mandal, Kurnool District, Andhra Pradesh", "inst_cap_m": 1000, "num_plants": 1, "xmin": 78.2642, "ymin": 15.6814, "xmax": 78.2642, "ymax": 15.6814 }, "geometry": { "type": "Point", "coordinates": [ 78.2642, 15.6814 ] } },
{ "type": "Feature", "properties": { "id": "solar_power_plants.75", "objectid": 75, "state_name": "Maharashtra", "location": "At Super Power Thermal Station, \nDist. Chandrapur.", "inst_cap_m": 1, "num_plants": 1, "xmin": 79.2713, "ymin": 20.0209, "xmax": 79.2713, "ymax": 20.0209 }, "geometry": { "type": "Point", "coordinates": [ 79.2713, 20.0209 ] } },
{ "type": "Feature", "properties": { "id": "solar_power_plants.76", "objectid": 76, "state_name": "Maharashtra", "location": "At Super Power Thermal Station, Dist.Chandrapur", "inst_cap_m": 2, "num_plants": 1, "xmin": 79.2713, "ymin": 20.0209, "xmax": 79.2713, "ymax": 20.0209 }, "geometry": { "type": "Point", "coordinates": [ 79.2713, 20.0209 ] } },
{ "type": "Feature", "properties": { "id": "solar_power_plants.77", "objectid": 77, "state_name": "Maharashtra", "location": "At Super Power Thermal Station,Dist. Chandrapur", "inst_cap_m": 2, "num_plants": 1, "xmin": 79.2713, "ymin": 20.0209, "xmax": 79.2713, "ymax": 20.0209 }, "geometry": { "type": "Point", "coordinates": [ 79.2713, 20.0209 ] } },
{ "type": "Feature", "properties": { "id": "solar_power_plants.92", "objectid": 92, "state_name": "Maharashtra", "location": "At Warora, Dist. Chandrapur", "inst_cap_m": 2, "num_plants": 1, "xmin": 79.0237, "ymin": 20.301, "xmax": 79.0237, "ymax": 20.301 }, "geometry": { "type": "Point", "coordinates": [ 79.0237, 20.301 ] } },
{ "type": "Feature", "properties": { "id": "solar_power_plants.66", "objectid": 66, "state_name": "Maharashtra", "location": "AT Gondhri, Tal. Ausa, Dist. Latur", "inst_cap_m": 5, "num_plants": 1, "xmin": 76.6551, "ymin": 18.3055, "xmax": 76.6551, "ymax": 18.3055 }, "geometry": { "type": "Point", "coordinates": [ 76.6551, 18.3055 ] } },
{ "type": "Feature", "properties": { "id": "solar_power_plants.84", "objectid": 84, "state_name": "Maharashtra", "location": "at village panchincholi, Tal. Nilanga, Dist. Latur", "inst_cap_m": 15, "num_plants": 1, "xmin": 76.6402, "ymin": 18.2768, "xmax": 76.6402, "ymax": 18.2768 }, "geometry": { "type": "Point", "coordinates": [ 76.6402, 18.2768 ] } },
{ "type": "Feature", "properties": { "id": "solar_power_plants.70", "objectid": 70, "state_name": "Maharashtra", "location": "at Mouze: Horti, Tal.Tuljapur, Dist. Osmanabad", "inst_cap_m": 20, "num_plants": 1, "xmin": 76.3224, "ymin": 17.9054, "xmax": 76.3224, "ymax": 17.9054 }, "geometry": { "type": "Point", "coordinates": [ 76.3224, 17.9054 ] } },
{ "type": "Feature", "properties": { "id": "solar_power_plants.62", "objectid": 62, "state_name": "Maharashtra", "location": "At Bamani, Dist. Osmanabad", "inst_cap_m": 1, "num_plants": 1, "xmin": 76.1807, "ymin": 18.0791, "xmax": 76.1807, "ymax": 18.0791 }, "geometry": { "type": "Point", "coordinates": [ 76.1807, 18.0791 ] } },
{ "type": "Feature", "properties": { "id": "solar_power_plants.79", "objectid": 79, "state_name": "Maharashtra", "location": "at village Andur, Tal Tuljapur Dist. Osmanabad", "inst_cap_m": 1, "num_plants": 1, "xmin": 76.219, "ymin": 17.8356, "xmax": 76.219, "ymax": 17.8356 }, "geometry": { "type": "Point", "coordinates": [ 76.219, 17.8356 ] } },
{ "type": "Feature", "properties": { "id": "solar_power_plants.96", "objectid": 96, "state_name": "Maharashtra", "location": "Village Andur, Tal.Tuljapur, Dist. Osmanabad", "inst_cap_m": 5, "num_plants": 1, "xmin": 76.219, "ymin": 17.8356, "xmax": 76.219, "ymax": 17.8356 }, "geometry": { "type": "Point", "coordinates": [ 76.219, 17.8356 ] } },
{ "type": "Feature", "properties": { "id": "solar_power_plants.90", "objectid": 90, "state_name": "Maharashtra", "location": "At Village Tamalwadi, Tal. Tuljapur Dist. Osmanabad.", "inst_cap_m": 14, "num_plants": 1, "xmin": 75.9649, "ymin": 17.828, "xmax": 75.9649, "ymax": 17.828 }, "geometry": { "type": "Point", "coordinates": [ 75.9649, 17.828 ] } },
{ "type": "Feature", "properties": { "id": "solar_power_plants.68", "objectid": 68, "state_name": "Maharashtra", "location": "at Kemwadi, Tal. Tuljapur, Dist. Osmanabad", "inst_cap_m": 7, "num_plants": 7, "xmin": 75.8684, "ymin": 17.8721, "xmax": 75.8684, "ymax": 17.8721 }, "geometry": { "type": "Point", "coordinates": [ 75.8684, 17.8721 ] } },
{ "type": "Feature", "properties": { "id": "solar_power_plants.69", "objectid": 69, "state_name": "Maharashtra", "location": "At Khandala, Tal.Karjat, Dist.Ahmednagar", "inst_cap_m": 5, "num_plants": 1, "xmin": 75.0381, "ymin": 18.6051, "xmax": 75.0381, "ymax": 18.6051 }, "geometry": { "type": "Point", "coordinates": [ 75.0381, 18.6051 ] } },
{ "type": "Feature", "properties": { "id": "solar_power_plants.71", "objectid": 71, "state_name": "Maharashtra", "location": "At Mulshi, Dist. Pune", "inst_cap_m": 3, "num_plants": 1, "xmin": 73.5081, "ymin": 18.4921, "xmax": 73.5081, "ymax": 18.4921 }, "geometry": { "type": "Point", "coordinates": [ 73.5081, 18.4921 ] } },
{ "type": "Feature", "properties": { "id": "solar_power_plants.87", "objectid": 87, "state_name": "Maharashtra", "location": "at Village Shirsuphal, Tal. Baramati, Dist. Pune", "inst_cap_m": 1, "num_plants": 1, "xmin": 74.5997, "ymin": 18.3119, "xmax": 74.5997, "ymax": 18.3119 }, "geometry": { "type": "Point", "coordinates": [ 74.5997, 18.3119 ] } },
{ "type": "Feature", "properties": { "id": "solar_power_plants.88", "objectid": 88, "state_name": "Maharashtra", "location": "at Village Shirsuphal, Tal. Baramati, Dist. Pune", "inst_cap_m": 25, "num_plants": 1, "xmin": 74.5673, "ymin": 18.3161, "xmax": 74.5673, "ymax": 18.3161 }, "geometry": { "type": "Point", "coordinates": [ 74.5673, 18.3161 ] } },
{ "type": "Feature", "properties": { "id": "solar_power_plants.74", "objectid": 74, "state_name": "Maharashtra", "location": "At Supa, Tal.Baramati, Dist.Pune", "inst_cap_m": 7, "num_plants": 2, "xmin": 74.3607, "ymin": 18.3247, "xmax": 74.3607, "ymax": 18.3247 }, "geometry": { "type": "Point", "coordinates": [ 74.3607, 18.3247 ] } },
{ "type": "Feature", "properties": { "id": "solar_power_plants.91", "objectid": 91, "state_name": "Maharashtra", "location": "at village, Mograle Dist. Satara", "inst_cap_m": 5, "num_plants": 1, "xmin": 74.5269, "ymin": 17.8698, "xmax": 74.5269, "ymax": 17.8698 }, "geometry": { "type": "Point", "coordinates": [ 74.5269, 17.8698 ] } },
{ "type": "Feature", "properties": { "id": "solar_power_plants.80", "objectid": 80, "state_name": "Maharashtra", "location": "At Village Aundh, Tal. Khatav, Dist. Satara", "inst_cap_m": 100, "num_plants": 1, "xmin": 74.3543, "ymin": 17.5566, "xmax": 74.3543, "ymax": 17.5566 }, "geometry": { "type": "Point", "coordinates": [ 74.3543, 17.5566 ] } },
{ "type": "Feature", "properties": { "id": "solar_power_plants.81", "objectid": 81, "state_name": "Maharashtra", "location": "At Village Aundh, Tal. Khatav, Dist. Satara", "inst_cap_m": 36, "num_plants": 1, "xmin": 74.3464, "ymin": 17.5584, "xmax": 74.3464, "ymax": 17.5584 }, "geometry": { "type": "Point", "coordinates": [ 74.3464, 17.5584 ] } },
{ "type": "Feature", "properties": { "id": "solar_power_plants.39", "objectid": 39, "state_name": "Gujarat", "location": "Porbandar", "inst_cap_m": 20, "num_plants": 1, "xmin": 69.843, "ymin": 21.5967, "xmax": 69.843, "ymax": 21.5967 }, "geometry": { "type": "Point", "coordinates": [ 69.843, 21.5967 ] } },
{ "type": "Feature", "properties": { "id": "solar_power_plants.40", "objectid": 40, "state_name": "Gujarat", "location": "Porbandar", "inst_cap_m": 15, "num_plants": 1, "xmin": 69.8442, "ymin": 21.6024, "xmax": 69.8442, "ymax": 21.6024 }, "geometry": { "type": "Point", "coordinates": [ 69.8442, 21.6024 ] } },
{ "type": "Feature", "properties": { "id": "solar_power_plants.41", "objectid": 41, "state_name": "Gujarat", "location": "Porbandar", "inst_cap_m": 10, "num_plants": 1, "xmin": 70.0203, "ymin": 21.6967, "xmax": 70.0203, "ymax": 21.6967 }, "geometry": { "type": "Point", "coordinates": [ 70.0203, 21.6967 ] } },
{ "type": "Feature", "properties": { "id": "solar_power_plants.42", "objectid": 42, "state_name": "Gujarat", "location": "Rajkot", "inst_cap_m": 25, "num_plants": 1, "xmin": 70.1028, "ymin": 21.7374, "xmax": 70.1028, "ymax": 21.7374 }, "geometry": { "type": "Point", "coordinates": [ 70.1028, 21.7374 ] } },
{ "type": "Feature", "properties": { "id": "solar_power_plants.43", "objectid": 43, "state_name": "Gujarat", "location": "Rajkot", "inst_cap_m": 5, "num_plants": 1, "xmin": 70.0773, "ymin": 21.7766, "xmax": 70.0773, "ymax": 21.7766 }, "geometry": { "type": "Point", "coordinates": [ 70.0773, 21.7766 ] } },
{ "type": "Feature", "properties": { "id": "solar_power_plants.25", "objectid": 25, "state_name": "Gujarat", "location": "Jamnagar", "inst_cap_m": 25, "num_plants": 1, "xmin": 68.9925, "ymin": 22.4077, "xmax": 68.9925, "ymax": 22.4077 }, "geometry": { "type": "Point", "coordinates": [ 68.9925, 22.4077 ] } },
{ "type": "Feature", "properties": { "id": "solar_power_plants.27", "objectid": 27, "state_name": "Gujarat", "location": "Kutch", "inst_cap_m": 40, "num_plants": 1, "xmin": 69.0254, "ymin": 23.2579, "xmax": 69.0254, "ymax": 23.2579 }, "geometry": { "type": "Point", "coordinates": [ 69.0254, 23.2579 ] } },
{ "type": "Feature", "properties": { "id": "solar_power_plants.28", "objectid": 28, "state_name": "Gujarat", "location": "Kutch", "inst_cap_m": 5, "num_plants": 1, "xmin": 70.0097, "ymin": 23.2592, "xmax": 70.0097, "ymax": 23.2592 }, "geometry": { "type": "Point", "coordinates": [ 70.0097, 23.2592 ] } },
{ "type": "Feature", "properties": { "id": "solar_power_plants.32", "objectid": 32, "state_name": "Gujarat", "location": "Kutch", "inst_cap_m": 15, "num_plants": 1, "xmin": 70.0536, "ymin": 23.3618, "xmax": 70.0536, "ymax": 23.3618 }, "geometry": { "type": "Point", "coordinates": [ 70.0536, 23.3618 ] } },
{ "type": "Feature", "properties": { "id": "solar_power_plants.30", "objectid": 30, "state_name": "Gujarat", "location": "Kutch", "inst_cap_m": 5, "num_plants": 1, "xmin": 70.0548, "ymin": 23.3578, "xmax": 70.0548, "ymax": 23.3578 }, "geometry": { "type": "Point", "coordinates": [ 70.0548, 23.3578 ] } },
{ "type": "Feature", "properties": { "id": "solar_power_plants.29", "objectid": 29, "state_name": "Gujarat", "location": "Kutch", "inst_cap_m": 15, "num_plants": 1, "xmin": 70.388, "ymin": 23.35, "xmax": 70.388, "ymax": 23.35 }, "geometry": { "type": "Point", "coordinates": [ 70.388, 23.35 ] } },
{ "type": "Feature", "properties": { "id": "solar_power_plants.47", "objectid": 47, "state_name": "Gujarat", "location": "Surendranagar", "inst_cap_m": 5, "num_plants": 1, "xmin": 70.6146, "ymin": 23.383, "xmax": 70.6146, "ymax": 23.383 }, "geometry": { "type": "Point", "coordinates": [ 70.6146, 23.383 ] } },
{ "type": "Feature", "properties": { "id": "solar_power_plants.33", "objectid": 33, "state_name": "Gujarat", "location": "Kutch", "inst_cap_m": 5, "num_plants": 1, "xmin": 70.6267, "ymin": 23.3654, "xmax": 70.6267, "ymax": 23.3654 }, "geometry": { "type": "Point", "coordinates": [ 70.6267, 23.3654 ] } },
{ "type": "Feature", "properties": { "id": "solar_power_plants.31", "objectid": 31, "state_name": "Gujarat", "location": "Kutch", "inst_cap_m": 5, "num_plants": 1, "xmin": 70.6206, "ymin": 23.3585, "xmax": 70.6206, "ymax": 23.3585 }, "geometry": { "type": "Point", "coordinates": [ 70.6206, 23.3585 ] } },
{ "type": "Feature", "properties": { "id": "solar_power_plants.34", "objectid": 34, "state_name": "Gujarat", "location": "Kutch", "inst_cap_m": 9, "num_plants": 1, "xmin": 70.7432, "ymin": 23.3682, "xmax": 70.7432, "ymax": 23.3682 }, "geometry": { "type": "Point", "coordinates": [ 70.7432, 23.3682 ] } },
{ "type": "Feature", "properties": { "id": "solar_power_plants.48", "objectid": 48, "state_name": "Gujarat", "location": "Surendranagar", "inst_cap_m": 5, "num_plants": 1, "xmin": 71.6401, "ymin": 23.3948, "xmax": 71.6401, "ymax": 23.3948 }, "geometry": { "type": "Point", "coordinates": [ 71.6401, 23.3948 ] } },
{ "type": "Feature", "properties": { "id": "solar_power_plants.26", "objectid": 26, "state_name": "Gujarat", "location": "Junagadh", "inst_cap_m": 10, "num_plants": 1, "xmin": 71.0063, "ymin": 20.8183, "xmax": 71.0063, "ymax": 20.8183 }, "geometry": { "type": "Point", "coordinates": [ 71.0063, 20.8183 ] } },
{ "type": "Feature", "properties": { "id": "solar_power_plants.14", "objectid": 14, "state_name": "Gujarat", "location": "Amreli", "inst_cap_m": 10, "num_plants": 1, "xmin": 71.2801, "ymin": 20.8772, "xmax": 71.2801, "ymax": 20.8772 }, "geometry": { "type": "Point", "coordinates": [ 71.2801, 20.8772 ] } },
{ "type": "Feature", "properties": { "id": "solar_power_plants.20", "objectid": 20, "state_name": "Gujarat", "location": "Bharuch", "inst_cap_m": 4, "num_plants": 1, "xmin": 72.5757, "ymin": 21.7219, "xmax": 72.5757, "ymax": 21.7219 }, "geometry": { "type": "Point", "coordinates": [ 72.5757, 21.7219 ] } },
{ "type": "Feature", "properties": { "id": "solar_power_plants.21", "objectid": 21, "state_name": "Gujarat", "location": "Bharuch", "inst_cap_m": 5, "num_plants": 1, "xmin": 72.9033, "ymin": 21.8976, "xmax": 72.9033, "ymax": 21.8976 }, "geometry": { "type": "Point", "coordinates": [ 72.9033, 21.8976 ] } },
{ "type": "Feature", "properties": { "id": "solar_power_plants.46", "objectid": 46, "state_name": "Gujarat", "location": "Surat", "inst_cap_m": 5, "num_plants": 1, "xmin": 73.1273, "ymin": 21.4239, "xmax": 73.1273, "ymax": 21.4239 }, "geometry": { "type": "Point", "coordinates": [ 73.1273, 21.4239 ] } },
{ "type": "Feature", "properties": { "id": "solar_power_plants.89", "objectid": 89, "state_name": "Maharashtra", "location": "at Village Shivajinagar, Tal. Sakri, Dist. Dhule", "inst_cap_m": 26, "num_plants": 1, "xmin": 74.3529, "ymin": 21.0864, "xmax": 74.3529, "ymax": 21.0864 }, "geometry": { "type": "Point", "coordinates": [ 74.3529, 21.0864 ] } },
{ "type": "Feature", "properties": { "id": "solar_power_plants.93", "objectid": 93, "state_name": "Maharashtra", "location": "Gut No. 12, Village Shivajinagar, Tal. Sakri, Dist. Dhule.", "inst_cap_m": 1, "num_plants": 1, "xmin": 74.3529, "ymin": 21.0864, "xmax": 74.3529, "ymax": 21.0864 }, "geometry": { "type": "Point", "coordinates": [ 74.3529, 21.0864 ] } },
{ "type": "Feature", "properties": { "id": "solar_power_plants.44", "objectid": 44, "state_name": "Gujarat", "location": "Sabarkantha", "inst_cap_m": 10, "num_plants": 1, "xmin": 73.2014, "ymin": 23.443, "xmax": 73.2014, "ymax": 23.443 }, "geometry": { "type": "Point", "coordinates": [ 73.2014, 23.443 ] } },
{ "type": "Feature", "properties": { "id": "solar_power_plants.24", "objectid": 24, "state_name": "Gujarat", "location": "Gandhinagar", "inst_cap_m": 1, "num_plants": 1, "xmin": 72.6826, "ymin": 23.2743, "xmax": 72.6826, "ymax": 23.2743 }, "geometry": { "type": "Point", "coordinates": [ 72.6826, 23.2743 ] } },
{ "type": "Feature", "properties": { "id": "solar_power_plants.23", "objectid": 23, "state_name": "Gujarat", "location": "Gandhinagar", "inst_cap_m": 1, "num_plants": 1, "xmin": 72.669, "ymin": 23.1534, "xmax": 72.669, "ymax": 23.1534 }, "geometry": { "type": "Point", "coordinates": [ 72.669, 23.1534 ] } },
{ "type": "Feature", "properties": { "id": "solar_power_plants.16", "objectid": 16, "state_name": "Gujarat", "location": "Anand", "inst_cap_m": 1, "num_plants": 1, "xmin": 72.5235, "ymin": 22.4809, "xmax": 72.5235, "ymax": 22.4809 }, "geometry": { "type": "Point", "coordinates": [ 72.5235, 22.4809 ] } },
{ "type": "Feature", "properties": { "id": "solar_power_plants.15", "objectid": 15, "state_name": "Gujarat", "location": "Anand", "inst_cap_m": 15, "num_plants": 1, "xmin": 72.4397, "ymin": 22.3172, "xmax": 72.4397, "ymax": 22.3172 }, "geometry": { "type": "Point", "coordinates": [ 72.4397, 22.3172 ] } },
{ "type": "Feature", "properties": { "id": "solar_power_plants.18", "objectid": 18, "state_name": "Gujarat", "location": "Banaskantha", "inst_cap_m": 15, "num_plants": 1, "xmin": 71.9424, "ymin": 23.9151, "xmax": 71.9424, "ymax": 23.9151 }, "geometry": { "type": "Point", "coordinates": [ 71.9424, 23.9151 ] } },
{ "type": "Feature", "properties": { "id": "solar_power_plants.17", "objectid": 17, "state_name": "Gujarat", "location": "Banaskantha", "inst_cap_m": 15, "num_plants": 1, "xmin": 71.9324, "ymin": 23.9116, "xmax": 71.9324, "ymax": 23.9116 }, "geometry": { "type": "Point", "coordinates": [ 71.9324, 23.9116 ] } },
{ "type": "Feature", "properties": { "id": "solar_power_plants.19", "objectid": 19, "state_name": "Gujarat", "location": "Banaskantha", "inst_cap_m": 25, "num_plants": 1, "xmin": 72.1999, "ymin": 24.5216, "xmax": 72.1999, "ymax": 24.5216 }, "geometry": { "type": "Point", "coordinates": [ 72.1999, 24.5216 ] } },
{ "type": "Feature", "properties": { "id": "solar_power_plants.45", "objectid": 45, "state_name": "Gujarat", "location": "Sabarkantha", "inst_cap_m": 3, "num_plants": 1, "xmin": 73.286, "ymin": 23.5594, "xmax": 73.286, "ymax": 23.5594 }, "geometry": { "type": "Point", "coordinates": [ 73.286, 23.5594 ] } },
{ "type": "Feature", "properties": { "id": "solar_power_plants.144", "objectid": 144, "state_name": "Rajasthan", "location": "Gulabpura Village, Hurda Tehsil, Bhilwara District, Rajasthan", "inst_cap_m": 5, "num_plants": 1, "xmin": 74.6567, "ymin": 25.86, "xmax": 74.6567, "ymax": 25.86 }, "geometry": { "type": "Point", "coordinates": [ 74.6567, 25.86 ] } },
{ "type": "Feature", "properties": { "id": "solar_power_plants.141", "objectid": 141, "state_name": "Rajasthan", "location": "Dugar Village, Shergarh Tehsil, Jodhpur District, Rajasthan", "inst_cap_m": 1, "num_plants": 1, "xmin": 72.651, "ymin": 26.2776, "xmax": 72.651, "ymax": 26.2776 }, "geometry": { "type": "Point", "coordinates": [ 72.651, 26.2776 ] } },
{ "type": "Feature", "properties": { "id": "solar_power_plants.155", "objectid": 155, "state_name": "Rajasthan", "location": "Patodi Village, Pachpadra Tehsil, Barmer District, Rajasthan", "inst_cap_m": 1, "num_plants": 1, "xmin": 72.2677, "ymin": 26.0748, "xmax": 72.2677, "ymax": 26.0748 }, "geometry": { "type": "Point", "coordinates": [ 72.2677, 26.0748 ] } },
{ "type": "Feature", "properties": { "id": "solar_power_plants.49", "objectid": 49, "state_name": "Gujarat", "location": "Village Daisar, Tehsil Santalpur, District Patan, Gujarat", "inst_cap_m": 20, "num_plants": 1, "xmin": 71.5213, "ymin": 23.9259, "xmax": 71.5213, "ymax": 23.9259 }, "geometry": { "type": "Point", "coordinates": [ 71.5213, 23.9259 ] } },
{ "type": "Feature", "properties": { "id": "solar_power_plants.37", "objectid": 37, "state_name": "Gujarat", "location": "Patan", "inst_cap_m": 5, "num_plants": 1, "xmin": 71.5782, "ymin": 23.6688, "xmax": 71.5782, "ymax": 23.6688 }, "geometry": { "type": "Point", "coordinates": [ 71.5782, 23.6688 ] } },
{ "type": "Feature", "properties": { "id": "solar_power_plants.36", "objectid": 36, "state_name": "Gujarat", "location": "Patan", "inst_cap_m": 12, "num_plants": 1, "xmin": 71.7, "ymin": 23.6493, "xmax": 71.7, "ymax": 23.6493 }, "geometry": { "type": "Point", "coordinates": [ 71.7, 23.6493 ] } },
{ "type": "Feature", "properties": { "id": "solar_power_plants.38", "objectid": 38, "state_name": "Gujarat", "location": "Patan", "inst_cap_m": 15, "num_plants": 1, "xmin": 71.5679, "ymin": 23.6931, "xmax": 71.5679, "ymax": 23.6931 }, "geometry": { "type": "Point", "coordinates": [ 71.5679, 23.6931 ] } },
{ "type": "Feature", "properties": { "id": "solar_power_plants.22", "objectid": 22, "state_name": "Gujarat", "location": "Charanka", "inst_cap_m": 502, "num_plants": 27, "xmin": 71.2016, "ymin": 23.907, "xmax": 71.2016, "ymax": 23.907 }, "geometry": { "type": "Point", "coordinates": [ 71.2016, 23.907 ] } },
{ "type": "Feature", "properties": { "id": "solar_power_plants.35", "objectid": 35, "state_name": "Gujarat", "location": "Kutch", "inst_cap_m": 5, "num_plants": 1, "xmin": 68.7653, "ymin": 23.6788, "xmax": 68.7653, "ymax": 23.6788 }, "geometry": { "type": "Point", "coordinates": [ 68.7653, 23.6788 ] } },
{ "type": "Feature", "properties": { "id": "solar_power_plants.137", "objectid": 137, "state_name": "Rajasthan", "location": "Bonada Village, Jaisalmer Tehsil, Jaisalmer District, Rajasthan", "inst_cap_m": 1, "num_plants": 1, "xmin": 71.5213, "ymin": 26.5249, "xmax": 71.5213, "ymax": 26.5249 }, "geometry": { "type": "Point", "coordinates": [ 71.5213, 26.5249 ] } },
{ "type": "Feature", "properties": { "id": "solar_power_plants.151", "objectid": 151, "state_name": "Rajasthan", "location": "Lahti Village, Pokhran Tehsil, Jaisalmer District, Rajasthan", "inst_cap_m": 1, "num_plants": 1, "xmin": 71.5322, "ymin": 27.0321, "xmax": 71.5322, "ymax": 27.0321 }, "geometry": { "type": "Point", "coordinates": [ 71.5322, 27.0321 ] } },
{ "type": "Feature", "properties": { "id": "solar_power_plants.129", "objectid": 129, "state_name": "Rajasthan", "location": "Askandra Village, Nachna Tehsil, Jaisalmer District, Rajasthan", "inst_cap_m": 5, "num_plants": 1, "xmin": 71.6916, "ymin": 27.3661, "xmax": 71.6916, "ymax": 27.3661 }, "geometry": { "type": "Point", "coordinates": [ 71.6916, 27.3661 ] } },
{ "type": "Feature", "properties": { "id": "solar_power_plants.128", "objectid": 128, "state_name": "Rajasthan", "location": "Askandra Village, Nachna Tehsil, Jaisalmer District, Rajasthan", "inst_cap_m": 5, "num_plants": 1, "xmin": 71.6918, "ymin": 27.3632, "xmax": 71.6918, "ymax": 27.3632 }, "geometry": { "type": "Point", "coordinates": [ 71.6918, 27.3632 ] } },
{ "type": "Feature", "properties": { "id": "solar_power_plants.127", "objectid": 127, "state_name": "Rajasthan", "location": "Askandra Village, Nachna Tehsil, Jaisalmer District, Rajasthan", "inst_cap_m": 5, "num_plants": 1, "xmin": 71.6918, "ymin": 27.36, "xmax": 71.6918, "ymax": 27.36 }, "geometry": { "type": "Point", "coordinates": [ 71.6918, 27.36 ] } },
{ "type": "Feature", "properties": { "id": "solar_power_plants.126", "objectid": 126, "state_name": "Rajasthan", "location": "Askandra Village, Nachna Tehsil, Jaisalmer District, Rajasthan", "inst_cap_m": 5, "num_plants": 1, "xmin": 71.6917, "ymin": 27.3566, "xmax": 71.6917, "ymax": 27.3566 }, "geometry": { "type": "Point", "coordinates": [ 71.6917, 27.3566 ] } },
{ "type": "Feature", "properties": { "id": "solar_power_plants.125", "objectid": 125, "state_name": "Rajasthan", "location": "Askandra Village, Nachna Tehsil, Jaisalmer District, Rajasthan", "inst_cap_m": 5, "num_plants": 1, "xmin": 71.6917, "ymin": 27.3537, "xmax": 71.6917, "ymax": 27.3537 }, "geometry": { "type": "Point", "coordinates": [ 71.6917, 27.3537 ] } },
{ "type": "Feature", "properties": { "id": "solar_power_plants.124", "objectid": 124, "state_name": "Rajasthan", "location": "Askandra Village, Nachna Tehsil, Jaisalmer District, Rajasthan", "inst_cap_m": 5, "num_plants": 1, "xmin": 71.6918, "ymin": 27.3504, "xmax": 71.6918, "ymax": 27.3504 }, "geometry": { "type": "Point", "coordinates": [ 71.6918, 27.3504 ] } },
{ "type": "Feature", "properties": { "id": "solar_power_plants.123", "objectid": 123, "state_name": "Rajasthan", "location": "Askandra Village, Nachna Tehsil, Jaisalmer District, Rajasthan", "inst_cap_m": 5, "num_plants": 1, "xmin": 71.6917, "ymin": 27.3473, "xmax": 71.6917, "ymax": 27.3473 }, "geometry": { "type": "Point", "coordinates": [ 71.6917, 27.3473 ] } },
{ "type": "Feature", "properties": { "id": "solar_power_plants.117", "objectid": 117, "state_name": "Punjab", "location": "Village Punjawa Sikh Wala, District Sri Mukatsar Sahib", "inst_cap_m": 19, "num_plants": 1, "xmin": 74.546, "ymin": 30.0208, "xmax": 74.546, "ymax": 30.0208 }, "geometry": { "type": "Point", "coordinates": [ 74.546, 30.0208 ] } },
{ "type": "Feature", "properties": { "id": "solar_power_plants.111", "objectid": 111, "state_name": "Punjab", "location": "Village Lakhewali, District Sri Mukatsar Sahib", "inst_cap_m": 2, "num_plants": 1, "xmin": 74.3316, "ymin": 30.4368, "xmax": 74.3316, "ymax": 30.4368 }, "geometry": { "type": "Point", "coordinates": [ 74.3316, 30.4368 ] } },
{ "type": "Feature", "properties": { "id": "solar_power_plants.122", "objectid": 122, "state_name": "Rajasthan", "location": "Amarsar Village, Sardarshahar Tehsil, Churu District, Rajasthan", "inst_cap_m": 1, "num_plants": 1, "xmin": 74.2402, "ymin": 28.3615, "xmax": 74.2402, "ymax": 28.3615 }, "geometry": { "type": "Point", "coordinates": [ 74.2402, 28.3615 ] } },
{ "type": "Feature", "properties": { "id": "solar_power_plants.130", "objectid": 130, "state_name": "Rajasthan", "location": "Bamanwali Village, Lunkaransar Tehsil, Bikaner District, Rajasthan", "inst_cap_m": 1, "num_plants": 1, "xmin": 73.5286, "ymin": 28.3683, "xmax": 73.5286, "ymax": 28.3683 }, "geometry": { "type": "Point", "coordinates": [ 73.5286, 28.3683 ] } },
{ "type": "Feature", "properties": { "id": "solar_power_plants.154", "objectid": 154, "state_name": "Rajasthan", "location": "Nokha Daiya Village, Kolayat Tehsil, Bikaner District, Rajasthan", "inst_cap_m": 5, "num_plants": 1, "xmin": 72.9661, "ymin": 28.1371, "xmax": 72.9661, "ymax": 28.1371 }, "geometry": { "type": "Point", "coordinates": [ 72.9661, 28.1371 ] } },
{ "type": "Feature", "properties": { "id": "solar_power_plants.138", "objectid": 138, "state_name": "Rajasthan", "location": "Deh Village, Kolayat Tehsil, Bikaner District, Rajasthan", "inst_cap_m": 2, "num_plants": 1, "xmin": 72.8899, "ymin": 27.9253, "xmax": 72.8899, "ymax": 27.9253 }, "geometry": { "type": "Point", "coordinates": [ 72.8899, 27.9253 ] } },
{ "type": "Feature", "properties": { "id": "solar_power_plants.145", "objectid": 145, "state_name": "Rajasthan", "location": "Jatisara Village, Phalodi Tehsil, Jodhpur District, 342301 Rajasthan", "inst_cap_m": 5, "num_plants": 1, "xmin": 72.779, "ymin": 27.1165, "xmax": 72.779, "ymax": 27.1165 }, "geometry": { "type": "Point", "coordinates": [ 72.779, 27.1165 ] } },
{ "type": "Feature", "properties": { "id": "solar_power_plants.142", "objectid": 142, "state_name": "Rajasthan", "location": "Gadna Village, Bap Tehsil, Jodhpur District, Rajasthan", "inst_cap_m": 5, "num_plants": 1, "xmin": 72.3969, "ymin": 27.4296, "xmax": 72.3969, "ymax": 27.4296 }, "geometry": { "type": "Point", "coordinates": [ 72.3969, 27.4296 ] } },
{ "type": "Feature", "properties": { "id": "solar_power_plants.135", "objectid": 135, "state_name": "Rajasthan", "location": "Bavadi Barsingha Village, Bap Tehsil,  Phalodi District, Rajasthan", "inst_cap_m": 10, "num_plants": 1, "xmin": 72.3388, "ymin": 27.4523, "xmax": 72.3388, "ymax": 27.4523 }, "geometry": { "type": "Point", "coordinates": [ 72.3388, 27.4523 ] } },
{ "type": "Feature", "properties": { "id": "solar_power_plants.136", "objectid": 136, "state_name": "Rajasthan", "location": "Bavadi Barsingha Village, Bap Tehsil, Phalodi District, Rajasthan", "inst_cap_m": 33, "num_plants": 2, "xmin": 72.3245, "ymin": 27.4387, "xmax": 72.3245, "ymax": 27.4387 }, "geometry": { "type": "Point", "coordinates": [ 72.3245, 27.4387 ] } },
{ "type": "Feature", "properties": { "id": "solar_power_plants.163", "objectid": 163, "state_name": "Rajasthan", "location": "Village Manchitya, Bap Tehsil, Phalodi District, Rajasthan", "inst_cap_m": 20, "num_plants": 1, "xmin": 72.3113, "ymin": 27.4794, "xmax": 72.3113, "ymax": 27.4794 }, "geometry": { "type": "Point", "coordinates": [ 72.3113, 27.4794 ] } },
{ "type": "Feature", "properties": { "id": "solar_power_plants.133", "objectid": 133, "state_name": "Rajasthan", "location": "Bap Village, Phalodi District, Rajasthan", "inst_cap_m": 5, "num_plants": 1, "xmin": 72.3134, "ymin": 27.3893, "xmax": 72.3134, "ymax": 27.3893 }, "geometry": { "type": "Point", "coordinates": [ 72.3134, 27.3893 ] } },
{ "type": "Feature", "properties": { "id": "solar_power_plants.131", "objectid": 131, "state_name": "Rajasthan", "location": "Bap Village, Phalodi District, Rajasthan", "inst_cap_m": 20, "num_plants": 1, "xmin": 72.3188, "ymin": 27.3827, "xmax": 72.3188, "ymax": 27.3827 }, "geometry": { "type": "Point", "coordinates": [ 72.3188, 27.3827 ] } },
{ "type": "Feature", "properties": { "id": "solar_power_plants.132", "objectid": 132, "state_name": "Rajasthan", "location": "Bap Village, Phalodi District, Rajasthan", "inst_cap_m": 5, "num_plants": 1, "xmin": 72.3042, "ymin": 27.3851, "xmax": 72.3042, "ymax": 27.3851 }, "geometry": { "type": "Point", "coordinates": [ 72.3042, 27.3851 ] } },
{ "type": "Feature", "properties": { "id": "solar_power_plants.160", "objectid": 160, "state_name": "Rajasthan", "location": "Rawra, Phalodi District, Rajasthan", "inst_cap_m": 5, "num_plants": 1, "xmin": 72.2127, "ymin": 27.4118, "xmax": 72.2127, "ymax": 27.4118 }, "geometry": { "type": "Point", "coordinates": [ 72.2127, 27.4118 ] } },
{ "type": "Feature", "properties": { "id": "solar_power_plants.158", "objectid": 158, "state_name": "Rajasthan", "location": "Rawra, Phalodi District, Rajasthan", "inst_cap_m": 5, "num_plants": 1, "xmin": 72.2193, "ymin": 27.4092, "xmax": 72.2193, "ymax": 27.4092 }, "geometry": { "type": "Point", "coordinates": [ 72.2193, 27.4092 ] } },
{ "type": "Feature", "properties": { "id": "solar_power_plants.159", "objectid": 159, "state_name": "Rajasthan", "location": "Rawra, Phalodi District, Rajasthan", "inst_cap_m": 5, "num_plants": 1, "xmin": 72.2164, "ymin": 27.4108, "xmax": 72.2164, "ymax": 27.4108 }, "geometry": { "type": "Point", "coordinates": [ 72.2164, 27.4108 ] } },
{ "type": "Feature", "properties": { "id": "solar_power_plants.120", "objectid": 120, "state_name": "Punjab", "location": "Village Teona Pujarian and Jagga Ram Teerath", "inst_cap_m": 21, "num_plants": 1, "xmin": 72.1577, "ymin": 27.4137, "xmax": 72.1577, "ymax": 27.4137 }, "geometry": { "type": "Point", "coordinates": [ 72.1577, 27.4137 ] } },
{ "type": "Feature", "properties": { "id": "solar_power_plants.161", "objectid": 161, "state_name": "Rajasthan", "location": "Rawra, Phalodi District, Rajasthan", "inst_cap_m": 50, "num_plants": 1, "xmin": 72.1577, "ymin": 27.4137, "xmax": 72.1577, "ymax": 27.4137 }, "geometry": { "type": "Point", "coordinates": [ 72.1577, 27.4137 ] } },
{ "type": "Feature", "properties": { "id": "solar_power_plants.153", "objectid": 153, "state_name": "Rajasthan", "location": "Nokh Village, Jaisalmer Tehsil, Jaisalmer District, Rajasthan", "inst_cap_m": 50, "num_plants": 1, "xmin": 72.2242, "ymin": 27.6007, "xmax": 72.2242, "ymax": 27.6007 }, "geometry": { "type": "Point", "coordinates": [ 72.2242, 27.6007 ] } },
{ "type": "Feature", "properties": { "id": "solar_power_plants.152", "objectid": 152, "state_name": "Rajasthan", "location": "Nokh Village, Jaisalmer Tehsil, Jaisalmer District, Rajasthan", "inst_cap_m": 5, "num_plants": 1, "xmin": 72.206, "ymin": 27.5728, "xmax": 72.206, "ymax": 27.5728 }, "geometry": { "type": "Point", "coordinates": [ 72.206, 27.5728 ] } },
{ "type": "Feature", "properties": { "id": "solar_power_plants.148", "objectid": 148, "state_name": "Rajasthan", "location": "Khetusar Village, Bap Tehsil, Jodhpur District, Rajasthan", "inst_cap_m": 20, "num_plants": 1, "xmin": 71.9951, "ymin": 27.3225, "xmax": 71.9951, "ymax": 27.3225 }, "geometry": { "type": "Point", "coordinates": [ 71.9951, 27.3225 ] } },
{ "type": "Feature", "properties": { "id": "solar_power_plants.149", "objectid": 149, "state_name": "Rajasthan", "location": "Khetusar Village, Bap Tehsil, Jodhpur District, Rajasthan", "inst_cap_m": 10, "num_plants": 1, "xmin": 71.991, "ymin": 27.3247, "xmax": 71.991, "ymax": 27.3247 }, "geometry": { "type": "Point", "coordinates": [ 71.991, 27.3247 ] } },
{ "type": "Feature", "properties": { "id": "solar_power_plants.150", "objectid": 150, "state_name": "Rajasthan", "location": "Khirwa Village, Phalodi Tehsil, Jodhpur District, Rajasthan", "inst_cap_m": 1, "num_plants": 1, "xmin": 72.3236, "ymin": 27.301, "xmax": 72.3236, "ymax": 27.301 }, "geometry": { "type": "Point", "coordinates": [ 72.3236, 27.301 ] } },
{ "type": "Feature", "properties": { "id": "solar_power_plants.134", "objectid": 134, "state_name": "Rajasthan", "location": "Bap Village, Phalodi Tehsil, Jodhpur District, Rajasthan", "inst_cap_m": 5, "num_plants": 1, "xmin": 72.3554, "ymin": 27.3525, "xmax": 72.3554, "ymax": 27.3525 }, "geometry": { "type": "Point", "coordinates": [ 72.3554, 27.3525 ] } },
{ "type": "Feature", "properties": { "id": "solar_power_plants.140", "objectid": 140, "state_name": "Rajasthan", "location": "Dhursar Village, Pokharan Tehsil, Jaisalmer District, Rajasthan", "inst_cap_m": 40, "num_plants": 1, "xmin": 72.0078, "ymin": 26.8022, "xmax": 72.0078, "ymax": 26.8022 }, "geometry": { "type": "Point", "coordinates": [ 72.0078, 26.8022 ] } },
{ "type": "Feature", "properties": { "id": "solar_power_plants.139", "objectid": 139, "state_name": "Rajasthan", "location": "Dhursar Village, Pokharan Tehsil, Jaisalmer District, Rajasthan", "inst_cap_m": 100, "num_plants": 1, "xmin": 72.0098, "ymin": 26.7874, "xmax": 72.0098, "ymax": 26.7874 }, "geometry": { "type": "Point", "coordinates": [ 72.0098, 26.7874 ] } },
{ "type": "Feature", "properties": { "id": "solar_power_plants.162", "objectid": 162, "state_name": "Rajasthan", "location": "Tinwari Village, Osian Tehsil, Jodhpur District, Rajasthan", "inst_cap_m": 5, "num_plants": 1, "xmin": 72.8536, "ymin": 26.5182, "xmax": 72.8536, "ymax": 26.5182 }, "geometry": { "type": "Point", "coordinates": [ 72.8536, 26.5182 ] } },
{ "type": "Feature", "properties": { "id": "solar_power_plants.143", "objectid": 143, "state_name": "Rajasthan", "location": "Godelai Village, Shergarh Tehsil, Jodhpur District, Rajasthan", "inst_cap_m": 1, "num_plants": 1, "xmin": 72.5377, "ymin": 26.6532, "xmax": 72.5377, "ymax": 26.6532 }, "geometry": { "type": "Point", "coordinates": [ 72.5377, 26.6532 ] } },
{ "type": "Feature", "properties": { "id": "solar_power_plants.147", "objectid": 147, "state_name": "Rajasthan", "location": "Kathauti Village, Jayal Tehsil, Nagaur District, Rajasthan", "inst_cap_m": 5, "num_plants": 1, "xmin": 74.2524, "ymin": 27.224, "xmax": 74.2524, "ymax": 27.224 }, "geometry": { "type": "Point", "coordinates": [ 74.2524, 27.224 ] } },
{ "type": "Feature", "properties": { "id": "solar_power_plants.146", "objectid": 146, "state_name": "Rajasthan", "location": "Kathauti Village, Jayal Tehsil, Nagaur District, Rajasthan", "inst_cap_m": 35, "num_plants": 1, "xmin": 74.2553, "ymin": 27.2089, "xmax": 74.2553, "ymax": 27.2089 }, "geometry": { "type": "Point", "coordinates": [ 74.2553, 27.2089 ] } },
{ "type": "Feature", "properties": { "id": "solar_power_plants.156", "objectid": 156, "state_name": "Rajasthan", "location": "Phagi Village, Phagi Tehsil, Jaipur District, Rajasthan", "inst_cap_m": 1, "num_plants": 1, "xmin": 75.5622, "ymin": 26.5653, "xmax": 75.5622, "ymax": 26.5653 }, "geometry": { "type": "Point", "coordinates": [ 75.5622, 26.5653 ] } },
{ "type": "Feature", "properties": { "id": "solar_power_plants.157", "objectid": 157, "state_name": "Rajasthan", "location": "Rasulpur Village, Khetri Tehsil, Jhunjhunu District, Rajasthan", "inst_cap_m": 1, "num_plants": 1, "xmin": 75.679, "ymin": 27.9363, "xmax": 75.679, "ymax": 27.9363 }, "geometry": { "type": "Point", "coordinates": [ 75.679, 27.9363 ] } },
{ "type": "Feature", "properties": { "id": "solar_power_plants.114", "objectid": 114, "state_name": "Punjab", "location": "Village Mirpur Kalan, District Mansa", "inst_cap_m": 1, "num_plants": 1, "xmin": 75.3079, "ymin": 29.7311, "xmax": 75.3079, "ymax": 29.7311 }, "geometry": { "type": "Point", "coordinates": [ 75.3079, 29.7311 ] } },
{ "type": "Feature", "properties": { "id": "solar_power_plants.115", "objectid": 115, "state_name": "Punjab", "location": "Village Mirpur Kalan, District. Mansa", "inst_cap_m": 2, "num_plants": 1, "xmin": 75.3099, "ymin": 29.7303, "xmax": 75.3099, "ymax": 29.7303 }, "geometry": { "type": "Point", "coordinates": [ 75.3099, 29.7303 ] } },
{ "type": "Feature", "properties": { "id": "solar_power_plants.116", "objectid": 116, "state_name": "Punjab", "location": "Village Muradwala Dal Singh  & Dharangwala, District Fazilaka", "inst_cap_m": 21, "num_plants": 1, "xmin": 75.3099, "ymin": 29.7303, "xmax": 75.3099, "ymax": 29.7303 }, "geometry": { "type": "Point", "coordinates": [ 75.3099, 29.7303 ] } },
{ "type": "Feature", "properties": { "id": "solar_power_plants.119", "objectid": 119, "state_name": "Punjab", "location": "Village Sangat Pura, District Sangrur", "inst_cap_m": 10, "num_plants": 1, "xmin": 75.7767, "ymin": 29.9611, "xmax": 75.7767, "ymax": 29.9611 }, "geometry": { "type": "Point", "coordinates": [ 75.7767, 29.9611 ] } },
{ "type": "Feature", "properties": { "id": "solar_power_plants.108", "objectid": 108, "state_name": "Punjab", "location": "vii) Skyross enterprises, Sangrur", "inst_cap_m": 1, "num_plants": 1, "xmin": 75.8386, "ymin": 30.2463, "xmax": 75.8386, "ymax": 30.2463 }, "geometry": { "type": "Point", "coordinates": [ 75.8386, 30.2463 ] } },
{ "type": "Feature", "properties": { "id": "solar_power_plants.110", "objectid": 110, "state_name": "Punjab", "location": "Village Boha, District Mansa", "inst_cap_m": 2, "num_plants": 1, "xmin": 75.49, "ymin": 29.8504, "xmax": 75.49, "ymax": 29.8504 }, "geometry": { "type": "Point", "coordinates": [ 75.49, 29.8504 ] } },
{ "type": "Feature", "properties": { "id": "solar_power_plants.112", "objectid": 112, "state_name": "Punjab", "location": "Village Lakhmirwala, District  Mansa", "inst_cap_m": 21, "num_plants": 1, "xmin": 75.4023, "ymin": 29.8509, "xmax": 75.4023, "ymax": 29.8509 }, "geometry": { "type": "Point", "coordinates": [ 75.4023, 29.8509 ] } },
{ "type": "Feature", "properties": { "id": "solar_power_plants.121", "objectid": 121, "state_name": "Punjab", "location": "Village Teona Pujarian, District Bathinda", "inst_cap_m": 4, "num_plants": 1, "xmin": 75.1631, "ymin": 29.9619, "xmax": 75.1631, "ymax": 29.9619 }, "geometry": { "type": "Point", "coordinates": [ 75.1631, 29.9619 ] } },
{ "type": "Feature", "properties": { "id": "solar_power_plants.113", "objectid": 113, "state_name": "Punjab", "location": "Village Lallian Kalan, District Jallandhar", "inst_cap_m": 1, "num_plants": 1, "xmin": 75.4826, "ymin": 31.2496, "xmax": 75.4826, "ymax": 31.2496 }, "geometry": { "type": "Point", "coordinates": [ 75.4826, 31.2496 ] } },
{ "type": "Feature", "properties": { "id": "solar_power_plants.118", "objectid": 118, "state_name": "Punjab", "location": "Village Ramdass, District Amritsar", "inst_cap_m": 1, "num_plants": 1, "xmin": 74.9561, "ymin": 31.9619, "xmax": 74.9561, "ymax": 31.9619 }, "geometry": { "type": "Point", "coordinates": [ 74.9561, 31.9619 ] } },
{ "type": "Feature", "properties": { "id": "solar_power_plants.102", "objectid": 102, "state_name": "Punjab", "location": "Dera Beas, Distt Amritsar", "inst_cap_m": 20, "num_plants": 1, "xmin": 75.33, "ymin": 31.5448, "xmax": 75.33, "ymax": 31.5448 }, "geometry": { "type": "Point", "coordinates": [ 75.33, 31.5448 ] } },
{ "type": "Feature", "properties": { "id": "solar_power_plants.101", "objectid": 101, "state_name": "Punjab", "location": "(ii)  New Vegetable Market, Ludhiana", "inst_cap_m": 1, "num_plants": 1, "xmin": 75.8474, "ymin": 30.9393, "xmax": 75.8474, "ymax": 30.9393 }, "geometry": { "type": "Point", "coordinates": [ 75.8474, 30.9393 ] } },
{ "type": "Feature", "properties": { "id": "solar_power_plants.104", "objectid": 104, "state_name": "Punjab", "location": "iv) Bhagwant Singh & Others Warehouse Fatehgarh Sahib", "inst_cap_m": 1, "num_plants": 1, "xmin": 76.39, "ymin": 30.6546, "xmax": 76.39, "ymax": 30.6546 }, "geometry": { "type": "Point", "coordinates": [ 76.39, 30.6546 ] } },
{ "type": "Feature", "properties": { "id": "solar_power_plants.107", "objectid": 107, "state_name": "Punjab", "location": "vi) Kulwinder Kaur & Bhagwant Singh Warehouse Bassi Pathana", "inst_cap_m": 1, "num_plants": 1, "xmin": 76.4041, "ymin": 30.6894, "xmax": 76.4041, "ymax": 30.6894 }, "geometry": { "type": "Point", "coordinates": [ 76.4041, 30.6894 ] } },
{ "type": "Feature", "properties": { "id": "solar_power_plants.109", "objectid": 109, "state_name": "Punjab", "location": "viii) Canam consultants LTD. Morinda", "inst_cap_m": 2, "num_plants": 1, "xmin": 76.5001, "ymin": 30.7893, "xmax": 76.5001, "ymax": 30.7893 }, "geometry": { "type": "Point", "coordinates": [ 76.5001, 30.7893 ] } },
{ "type": "Feature", "properties": { "id": "solar_power_plants.103", "objectid": 103, "state_name": "Punjab", "location": "iii) Fruit & Vegetable Market, SAS Nagar", "inst_cap_m": 2, "num_plants": 1, "xmin": 76.7471, "ymin": 30.6752, "xmax": 76.7471, "ymax": 30.6752 }, "geometry": { "type": "Point", "coordinates": [ 76.7471, 30.6752 ] } },
{ "type": "Feature", "properties": { "id": "solar_power_plants.105", "objectid": 105, "state_name": "Punjab", "location": "ix) Boss Computers, Zirakpur", "inst_cap_m": 1, "num_plants": 1, "xmin": 76.8245, "ymin": 30.652, "xmax": 76.8245, "ymax": 30.652 }, "geometry": { "type": "Point", "coordinates": [ 76.8245, 30.652 ] } },
{ "type": "Feature", "properties": { "id": "solar_power_plants.106", "objectid": 106, "state_name": "Punjab", "location": "v)  C.A Vegefruit stores, Kharar", "inst_cap_m": 1, "num_plants": 1, "xmin": 76.6421, "ymin": 30.75, "xmax": 76.6421, "ymax": 30.75 }, "geometry": { "type": "Point", "coordinates": [ 76.6421, 30.75 ] } },
{ "type": "Feature", "properties": { "id": "solar_power_plants.57", "objectid": 57, "state_name": "Madhya Pradesh", "location": "Neemuch", "inst_cap_m": 130, "num_plants": 1, "xmin": 75.1347, "ymin": 24.6907, "xmax": 75.1347, "ymax": 24.6907 }, "geometry": { "type": "Point", "coordinates": [ 75.1347, 24.6907 ] } },
{ "type": "Feature", "properties": { "id": "solar_power_plants.58", "objectid": 58, "state_name": "Madhya Pradesh", "location": "Neemuch", "inst_cap_m": 25, "num_plants": 1, "xmin": 75.0358, "ymin": 24.7215, "xmax": 75.0358, "ymax": 24.7215 }, "geometry": { "type": "Point", "coordinates": [ 75.0358, 24.7215 ] } },
{ "type": "Feature", "properties": { "id": "solar_power_plants.54", "objectid": 54, "state_name": "Madhya Pradesh", "location": "Mandsaur", "inst_cap_m": 20, "num_plants": 1, "xmin": 75.3456, "ymin": 24.0393, "xmax": 75.3456, "ymax": 24.0393 }, "geometry": { "type": "Point", "coordinates": [ 75.3456, 24.0393 ] } },
{ "type": "Feature", "properties": { "id": "solar_power_plants.55", "objectid": 55, "state_name": "Madhya Pradesh", "location": "Mandsaur", "inst_cap_m": 10, "num_plants": 1, "xmin": 75.3459, "ymin": 24.0481, "xmax": 75.3459, "ymax": 24.0481 }, "geometry": { "type": "Point", "coordinates": [ 75.3459, 24.0481 ] } },
{ "type": "Feature", "properties": { "id": "solar_power_plants.56", "objectid": 56, "state_name": "Madhya Pradesh", "location": "Mandsaur", "inst_cap_m": 10, "num_plants": 1, "xmin": 75.3477, "ymin": 24.0501, "xmax": 75.3477, "ymax": 24.0501 }, "geometry": { "type": "Point", "coordinates": [ 75.3477, 24.0501 ] } },
{ "type": "Feature", "properties": { "id": "solar_power_plants.53", "objectid": 53, "state_name": "Madhya Pradesh", "location": "Mandsaur", "inst_cap_m": 30, "num_plants": 1, "xmin": 75.3288, "ymin": 23.9803, "xmax": 75.3288, "ymax": 23.9803 }, "geometry": { "type": "Point", "coordinates": [ 75.3288, 23.9803 ] } },
{ "type": "Feature", "properties": { "id": "solar_power_plants.52", "objectid": 52, "state_name": "Madhya Pradesh", "location": "Mandsaur", "inst_cap_m": 20, "num_plants": 1, "xmin": 75.3344, "ymin": 23.9801, "xmax": 75.3344, "ymax": 23.9801 }, "geometry": { "type": "Point", "coordinates": [ 75.3344, 23.9801 ] } },
{ "type": "Feature", "properties": { "id": "solar_power_plants.50", "objectid": 50, "state_name": "Madhya Pradesh", "location": "Agar", "inst_cap_m": 7, "num_plants": 1, "xmin": 75.9246, "ymin": 23.7025, "xmax": 75.9246, "ymax": 23.7025 }, "geometry": { "type": "Point", "coordinates": [ 75.9246, 23.7025 ] } },
{ "type": "Feature", "properties": { "id": "solar_power_plants.51", "objectid": 51, "state_name": "Madhya Pradesh", "location": "Agar", "inst_cap_m": 45, "num_plants": 2, "xmin": 75.9262, "ymin": 23.7027, "xmax": 75.9262, "ymax": 23.7027 }, "geometry": { "type": "Point", "coordinates": [ 75.9262, 23.7027 ] } },
{ "type": "Feature", "properties": { "id": "solar_power_plants.59", "objectid": 59, "state_name": "Madhya Pradesh", "location": "Rajgarh", "inst_cap_m": 50, "num_plants": 1, "xmin": 76.7191, "ymin": 23.9637, "xmax": 76.7191, "ymax": 23.9637 }, "geometry": { "type": "Point", "coordinates": [ 76.7191, 23.9637 ] } },
{ "type": "Feature", "properties": { "id": "solar_power_plants.60", "objectid": 60, "state_name": "Madhya Pradesh", "location": "Rajgarh", "inst_cap_m": 25, "num_plants": 1, "xmin": 76.589, "ymin": 24.0682, "xmax": 76.589, "ymax": 24.0682 }, "geometry": { "type": "Point", "coordinates": [ 76.589, 24.0682 ] } },
{ "type": "Feature", "properties": { "id": "solar_power_plants.61", "objectid": 61, "state_name": "Madhya Pradesh", "location": "Sehore", "inst_cap_m": 50, "num_plants": 1, "xmin": 76.9389, "ymin": 23.04, "xmax": 76.9389, "ymax": 23.04 }, "geometry": { "type": "Point", "coordinates": [ 76.9389, 23.04 ] } },
{ "type": "Feature", "properties": { "id": "solar_power_plants.86", "objectid": 86, "state_name": "Maharashtra", "location": "at Village Rambhapur Tal. Murtizapur , Dist. Akola.", "inst_cap_m": 2, "num_plants": 1, "xmin": 77.4546, "ymin": 20.7256, "xmax": 77.4546, "ymax": 20.7256 }, "geometry": { "type": "Point", "coordinates": [ 77.4546, 20.7256 ] } },
{ "type": "Feature", "properties": { "id": "solar_power_plants.67", "objectid": 67, "state_name": "Maharashtra", "location": "At Katol, Dist Nagpur", "inst_cap_m": 2, "num_plants": 1, "xmin": 78.6001, "ymin": 21.3174, "xmax": 78.6001, "ymax": 21.3174 }, "geometry": { "type": "Point", "coordinates": [ 78.6001, 21.3174 ] } },
{ "type": "Feature", "properties": { "id": "solar_power_plants.97", "objectid": 97, "state_name": "Orissa", "location": "Chingerbandh Balangir ORISSA", "inst_cap_m": 5, "num_plants": 1, "xmin": 83.1107, "ymin": 20.6729, "xmax": 83.1107, "ymax": 20.6729 }, "geometry": { "type": "Point", "coordinates": [ 83.1107, 20.6729 ] } },
{ "type": "Feature", "properties": { "id": "solar_power_plants.98", "objectid": 98, "state_name": "Orissa", "location": "Orissa", "inst_cap_m": 5, "num_plants": 1, "xmin": 83.4538, "ymin": 20.731, "xmax": 83.4538, "ymax": 20.731 }, "geometry": { "type": "Point", "coordinates": [ 83.4538, 20.731 ] } },
{ "type": "Feature", "properties": { "id": "solar_power_plants.99", "objectid": 99, "state_name": "Orissa", "location": "Orissa", "inst_cap_m": 1, "num_plants": 1, "xmin": 83.4632, "ymin": 20.7325, "xmax": 83.4632, "ymax": 20.7325 }, "geometry": { "type": "Point", "coordinates": [ 83.4632, 20.7325 ] } },
{ "type": "Feature", "properties": { "id": "solar_power_plants.100", "objectid": 100, "state_name": "Orissa", "location": "Rangabeda & Pathermuda (P.O.- Deepshikha) Angul ORISSA", "inst_cap_m": 10, "num_plants": 1, "xmin": 85.0987, "ymin": 21.0866, "xmax": 85.0987, "ymax": 21.0866 }, "geometry": { "type": "Point", "coordinates": [ 85.0987, 21.0866 ] } },
{ "type": "Feature", "properties": { "id": "solar_power_plants.13", "objectid": 13, "state_name": "Andman & Nicobar", "location": "Garacharama, Portblair, Andaman & Nicobar Islands", "inst_cap_m": 5, "num_plants": 1, "xmin": 92.7109, "ymin": 11.6117, "xmax": 92.7109, "ymax": 11.6117 }, "geometry": { "type": "Point", "coordinates": [ 92.7109, 11.6117 ] } }
]
}
